[{"OBJECT_NAME":"STARLINK-32108","OBJECT_ID":"2024-086A","EPOCH":"2026-03-09T01:25:29.848800","MEAN_MOTION":15.27573212,"ECCENTRICITY":0.00010572,"INCLINATION":43.0039,"RA_OF_ASC_NODE":67.0607,"ARG_OF_PERICENTER":271.5921,"MEAN_ANOMALY":88.4809,"EPHEMERIS_TYPE":0,"CLASSIFICATION_TYPE":"U","NORAD_CAT_ID":59682,"ELEMENT_SET_NO":999,"REV_AT_EPOCH":10396,"BSTAR":2.9013389e-5,"MEAN_MOTION_DOT":5.36e-6,"MEAN_MOTION_DDOT":0},{"OBJECT_NAME":"FLOCK 4G-18","OBJECT_ID":"2025-009BZ","EPOCH":"2026-03-09T04:35:14.656704","MEAN_MOTION":15.27241676,"ECCENTRICITY":0.00041001,"INCLINATION":97.4054,"RA_OF_ASC_NODE":150.5008,"ARG_OF_PERICENTER":335.7331,"MEAN_ANOMALY":24.3715,"EPHEMERIS_TYPE":0,"CLASSIFICATION_TYPE":"U","NORAD_CAT_ID":62680,"ELEMENT_SET_NO":999,"REV_AT_EPOCH":12126,"BSTAR":0.0004431856,"MEAN_MOTION_DOT":0.00011766,"MEAN_MOTION_DDOT":0}]
